DMSP 5D-3 F16 (USA 172) 
1 28054U 03048A   26197.17023419 -.00000053  00000+0 -38529-5 0  9997
2 28054  98.9897 221.1893 0008079  68.7321  11.1083 14.14484796173584
METEOSAT-9 (MSG-2)      
1 28912U 05049B   26196.70868995  .00000110  00000+0  00000+0 0  9996
2 28912   9.4242  53.8824 0002207 356.2900 184.1676  1.00272260  7281
DMSP 5D-3 F17 (USA 191) 
1 29522U 06050A   26197.16128417 -.00000037  00000+0  35004-5 0  9993
2 29522  98.7388 203.1395 0009667 340.0349  20.0445 14.14996212 16527
FENGYUN 3A              
1 32958U 08026A   26196.45213659  .00000024  00000+0  32109-4 0  9996
2 32958  98.6886 136.7574 0009661  51.1669 309.0369 14.19576552939418
EWS-G3 (GOES 14)        
1 35491U 09033A   26197.06503198 -.00000370  00000+0  00000+0 0  9993
2 35491   1.7623  82.6815 0001935  40.1052 319.0547  1.00097655  6876
DMSP 5D-3 F18 (USA 210) 
1 35951U 09057A   26197.20519905  .00000170  00000+0  11119-3 0  9993
2 35951  98.9057 177.9140 0011289 162.6646 197.4915 14.14912063863693
EWS-G2 (GOES 15)        
1 36411U 10008A   26197.13988441  .00000011  00000+0  00000+0 0  9997
2 36411   1.3556  82.4456 0005264  54.0896 271.0977  1.00268468 59928
COMS 1                  
1 36744U 10032A   26197.11908432 -.00000252  00000+0  00000+0 0  9991
2 36744   4.8776  75.0054 0011230  15.0057 205.2047  0.99167726 51377
FENGYUN 3B              
1 37214U 10059A   26197.23133287 -.00000263  00000+0 -11277-3 0  9999
2 37214  98.9605 243.3667 0023189 103.7056 336.2051 14.14846062811536
SUOMI NPP               
1 37849U 11061A   26197.16928875  .00000012  00000+0  26568-4 0  9994
2 37849  98.7956 137.8483 0000790 208.3291 151.7842 14.19522661762552
METEOSAT-10 (MSG-3)     
1 38552U 12035B   26196.91334892 -.00000020  00000+0  00000+0 0  9998
2 38552   4.7379  60.8778 0001181  16.6551 185.0701  1.00271019 51140
METOP-B                 
1 38771U 12049A   26197.19065088  .00000047  00000+0  41325-4 0  9993
2 38771  98.6489 248.1090 0001107 249.7770 110.3288 14.21446582717387
INSAT-3D                
1 39216U 13038B   26197.06503198 -.00000351  00000+0  00000+0 0  9991
2 39216   1.9987  82.1743 0000526  78.8263 285.7997  1.00268123 47370
FENGYUN 3C              
1 39260U 13052A   26196.94920980  .00000026  00000+0  34387-4 0  9992
2 39260  98.4999 169.5064 0013639 303.6275  56.3598 14.15760894662633
METEOR-M 2              
1 40069U 14037A   26196.93503973 -.00000214  00000+0 -78720-4 0  9993
2 40069  98.5126 171.6581 0005129 324.5271  35.5565 14.21468619623408
HIMAWARI-8              
1 40267U 14060A   26196.94133448 -.00000286  00000+0  00000+0 0  9995
2 40267   0.0175  14.6307 0001103 153.4825 245.2159  1.00271236 43049
FENGYUN 2G              
1 40367U 14090A   26197.07566270 -.00000315  00000+0  00000+0 0  9990
2 40367   5.7094  72.4622 0004256 172.6495 175.3803  1.00280561 42287
METEOSAT-11 (MSG-4)     
1 40732U 15034A   26197.12913770  .00000049  00000+0  00000+0 0  9995
2 40732   3.2712  70.9255 0002150 354.5181 284.2621  1.00272152  7503
ELEKTRO-L 2             
1 41105U 15074A   26196.98185514 -.00000131  00000+0  00000+0 0  9997
2 41105   6.7640  70.1648 0000985 213.4147 349.2070  1.00272041 38795
SENTINEL-3A             
1 41335U 16011A   26197.18019272  .00000046  00000+0  36896-4 0  9995
2 41335  98.6237 264.1454 0001355  89.5764 270.5572 14.26739925542199
INSAT-3DR               
1 41752U 16054A   26197.14205110 -.00000087  00000+0  00000+0 0  9998
2 41752   0.0723  88.7235 0010545 181.2050 149.1809  1.00270781 36106
HIMAWARI-9              
1 41836U 16064A   26196.94133448 -.00000285  00000+0  00000+0 0  9993
2 41836   0.0394 252.9658 0001915 278.3797 242.0457  1.00271902 35493
GOES 16                 
1 41866U 16071A   26197.10657830 -.00000102  00000+0  00000+0 0  9997
2 41866   0.4063  85.4600 0000546  92.1970  49.9576  1.00271058 35390
FENGYUN 4A              
1 41882U 16077A   26197.22309391 -.00000369  00000+0  00000+0 0  9995
2 41882   2.3940  79.9442 0008496 159.5733 258.5863  1.00267567 35221
CYGFM05                 
1 41884U 16078A   26197.02678188  .00015884  00000+0  20609-3 0  9997
2 41884  34.9569  69.4362 0005792  45.5775 314.5423 15.57880539533250
CYGFM04                 
1 41885U 16078B   26196.96813022  .00021330  00000+0  22598-3 0  9990
2 41885  34.9324  36.0131 0004131  93.9356 266.1842 15.63112706533508
CYGFM02                 
1 41886U 16078C   26196.91110306  .00025803  00000+0  23954-3 0  9997
2 41886  34.9406  30.0489 0004906  96.3405 263.7881 15.66396547533676
CYGFM01                 
1 41887U 16078D   26197.06657206  .00016315  00000+0  20595-3 0  9996
2 41887  34.9396  69.9893 0005819  38.7960 321.3182 15.58601671533218
CYGFM08                 
1 41888U 16078E   26196.97464050  .00019819  00000+0  22374-3 0  9998
2 41888  34.9432  49.3900 0006084  77.1426 282.9979 15.61486003533478
CYGFM07                 
1 41890U 16078G   26196.93189911  .00019773  00000+0  22238-3 0  9995
2 41890  34.9448  37.9907 0004561  93.8617 266.2631 15.61593461533492
CYGFM03                 
1 41891U 16078H   26196.96703013  .00019725  00000+0  22196-3 0  9994
2 41891  34.9402  39.6858 0004433  75.5494 284.5723 15.61581462533476
